ONEWEB-0401             
1 50481U 21132N   23311.57376150  .00000132  00000+0  30112-3 0  9996
2 50481  87.9230 164.9539 0002297  64.9307 295.2063 13.18686127 96066
ONEWEB-0402             
1 50482U 21132P   23312.14704558  .00000039  00000+0  67141-4 0  9997
2 50482  87.9234 164.8377 0001521  57.2498 302.8781 13.18688788 97445
ONEWEB-0403             
1 50483U 21132Q   23311.63908304  .00000060  00000+0  11902-3 0  9993
2 50483  87.9233 164.9415 0001862  79.6593 280.4749 13.18687363 97332
ONEWEB-0404             
1 50484U 21132R   23311.76617694 -.00000370  00000+0 -10796-2 0  9992
2 50484  87.9008 210.2844 0002300  83.0737 277.0652 13.11417512 92139
ONEWEB-0405             
1 50485U 21132S   23311.58627771  .00000041  00000+0  70624-4 0  9991
2 50485  87.9237 164.9443 0001929  68.5337 291.6001 13.19205749 96447
ONEWEB-0406             
1 50486U 21132T   23312.09857743  .00001968  00000+0  49584-2 0  9991
2 50486  87.9234 164.8501 0002211  86.4205 273.7180 13.18663692 97430
ONEWEB-0407             
1 50487U 21132U   23311.56110497  .00000066  00000+0  13593-3 0  9991
2 50487  87.9232 164.9643 0001780  77.2461 282.8870 13.18684885 96016
ONEWEB-0409             
1 50488U 21132V   23311.45936493 -.00000266  00000+0 -78531-3 0  9999
2 50488  87.9003 210.3609 0001988  93.0848 267.0508 13.11418650 90718
